{
  "norad_id": 52862,
  "name": "STARLINK-4010",
  "history": [
    {
      "epoch": "2026-03-28T21:12:03.276864",
      "apogee_km": 540.7013392304707,
      "perigee_km": 538.816212631531,
      "latitude_deg": -12.128491125945727,
      "longitude_deg": -88.99635904002935,
      "semi_major_axis_km": 6917.895775931001,
      "eccentricity": 0.00013625,
      "inclination_deg": 53.218,
      "raan_deg": 297.9576,
      "arg_perigee_deg": 87.525,
      "mean_anomaly_deg": 272.5899,
      "mean_motion_rev_day": 15.08834966
    }
  ]
}